{
    "links": {
        "self": "http://www.neowsapp.com/rest/v1/neo/3770149?api_key=iIulBulltgU6a56xZRHN4H3l9WmuAYTsLGpBGhQ2"
    },
    "id": "3770149",
    "neo_reference_id": "3770149",
    "name": "(2017 DD38)",
    "designation": "2017 DD38",
    "nasa_jpl_url": "http://ssd.jpl.nasa.gov/sbdb.cgi?sstr=3770149",
    "absolute_magnitude_h": 24.5,
    "estimated_diameter": {
        "kilometers": {
            "estimated_diameter_min": 0.0334622374,
            "estimated_diameter_max": 0.0748238376
        },
        "meters": {
            "estimated_diameter_min": 33.4622374455,
            "estimated_diameter_max": 74.8238376074
        },
        "miles": {
            "estimated_diameter_min": 0.0207924639,
            "estimated_diameter_max": 0.0464933628
        },
        "feet": {
            "estimated_diameter_min": 109.7842471007,
            "estimated_diameter_max": 245.4850393757
        }
    },
    "is_potentially_hazardous_asteroid": false,
    "close_approach_data": [
        {
            "close_approach_date": "1987-02-25",
            "close_approach_date_full": "1987-Feb-25 15:28",
            "epoch_date_close_approach": 541265280000,
            "relative_velocity": {
                "kilometers_per_second": "21.3564030376",
                "kilometers_per_hour": "76883.0509351818",
                "miles_per_hour": "47772.1379546967"
            },
            "miss_distance": {
                "astronomical": "0.1714034174",
                "lunar": "66.6759293686",
                "kilometers": "25641586.153760938",
                "miles": "15932942.8155714244"
            },
            "orbiting_body": "Earth"
        },
        {
            "close_approach_date": "1988-10-28",
            "close_approach_date_full": "1988-Oct-28 23:00",
            "epoch_date_close_approach": 594082800000,
            "relative_velocity": {
                "kilometers_per_second": "5.1936304319",
                "kilometers_per_hour": "18697.0695547402",
                "miles_per_hour": "11617.6319130551"
            },
            "miss_distance": {
                "astronomical": "1.5693782117",
                "lunar": "610.4881243513",
                "kilometers": "234775637.694729079",
                "miles": "145882816.5874121302"
            },
            "orbiting_body": "Juptr"
        },
        {
            "close_approach_date": "2017-03-07",
            "close_approach_date_full": "2017-Mar-07 12:20",
            "epoch_date_close_approach": 1488889200000,
            "relative_velocity": {
                "kilometers_per_second": "17.1432752791",
                "kilometers_per_hour": "61715.7910048568",
                "miles_per_hour": "38347.792471879"
            },
            "miss_distance": {
                "astronomical": "0.0384047029",
                "lunar": "14.9394294281",
                "kilometers": "5745261.751822823",
                "miles": "3569940.1122600374"
            },
            "orbiting_body": "Earth"
        },
        {
            "close_approach_date": "2017-04-09",
            "close_approach_date_full": "2017-Apr-09 12:21",
            "epoch_date_close_approach": 1491740460000,
            "relative_velocity": {
                "kilometers_per_second": "12.6942626646",
                "kilometers_per_hour": "45699.3455926648",
                "miles_per_hour": "28395.7961545088"
            },
            "miss_distance": {
                "astronomical": "0.1341734237",
                "lunar": "52.1934618193",
                "kilometers": "20072058.396127519",
                "miles": "12472198.7438130022"
            },
            "orbiting_body": "Venus"
        }
    ],
    "orbital_data": {
        "orbit_id": "11",
        "orbit_determination_date": "2018-02-14 13:45:03",
        "first_observation_date": "2017-02-25",
        "last_observation_date": "2017-03-04",
        "data_arc_in_days": 7,
        "observations_used": 42,
        "orbit_uncertainty": "8",
        "minimum_orbit_intersection": ".00297302",
        "jupiter_tisserand_invariant": "3.331",
        "epoch_osculation": "2457814.5",
        "eccentricity": ".6476982916916821",
        "semi_major_axis": "2.229578420698323",
        "inclination": "1.279820777204324",
        "ascending_node_longitude": "177.6548271855087",
        "orbital_period": "1215.997145313509",
        "perihelion_distance": ".7854842864193806",
        "perihelion_argument": "54.40162902179782",
        "aphelion_distance": "3.673672554977265",
        "perihelion_time": "2457861.149621770692",
        "mean_anomaly": "346.1892242903915",
        "mean_motion": ".2960533265949277",
        "equinox": "J2000",
        "orbit_class": {
            "orbit_class_type": "APO",
            "orbit_class_description": "Near-Earth asteroid orbits which cross the Earth’s orbit similar to that of 1862 Apollo",
            "orbit_class_range": "a (semi-major axis) > 1.0 AU; q (perihelion) < 1.017 AU"
        }
    },
    "is_sentry_object": false
}